[
    {
        "Altitude(m)": 612502.2505203455,
        "Argument of Periapsis(deg)": 0.0,
        "Eccentricity": 0.0,
        "Inclination(deg)": 60.0,
        "Latitude(deg)": -28.136154053226555,
        "Longitude(deg)": -102.85177122144053,
        "Mean Anomaly(deg)": 327.2727,
        "RAAN(deg)": 15.0,
        "Satellite Name": "Test1 86",
        "Satellite Number": 86,
        "Semi-Major Axis(m)": 6980739.136638005,
        "Time(s)": 0
    },
    {
        "Altitude(m)": 612308.69780229,
        "Argument of Periapsis(deg)": 0.00010418945913296404,
        "Eccentricity": 0.0,
        "Inclination(deg)": 60.0,
        "Latitude(deg)": -27.623209611152273,
        "Longitude(deg)": -102.49829605179455,
        "Mean Anomaly(deg)": 327.8928061454618,
        "RAAN(deg)": 14.999579950860259,
        "Satellite Name": "Test1 86",
        "Satellite Number": 86,
        "Semi-Major Axis(m)": 6980739.136638005,
        "Time(s)": 10
    }
]